NORAD_CAT_ID,OBJECT_NAME,OBJECT_TYPE,EPOCH,MEAN_MOTION,ECCENTRICITY,INCLINATION,RA_OF_ASC_NODE,ARG_OF_PERICENTER,MEAN_ANOMALY,BSTAR,MEAN_MOTION_DOT,MEAN_MOTION_DDOT,TLE_LINE0,TLE_LINE1,TLE_LINE2,SEMIMAJOR_AXIS,PERIOD,APOGEE,PERIGEE,DECAYED
55742.0,STARLINK-5594,PAYLOAD,2024-04-11 13:29:13,14.98337158,0.0002972,70.0,202.3044,266.7988,93.2831,-0.0001259,-1.595e-05,0.0,0 STARLINK-5594,1 55742U 23028B   24102.56196716 -.00001595  00000-0 -12590-3 0  9990,2 55742  70.0000 202.3044 0002972 266.7988  93.2831 14.98337158 61612,6950.171,96.107,574.101,569.97,0.0
55742.0,STARLINK-5594,PAYLOAD,2024-04-11 16:41:30,14.98330812,0.0003184,70.0001,201.967,271.2945,88.7849,2.5715e-05,2.14e-06,0.0,0 STARLINK-5594,1 55742U 23028B   24102.69548843  .00000214  00000-0  25715-4 0  9995,2 55742  70.0001 201.9670 0003184 271.2945  88.7849 14.98330812 61633,6950.19,96.107,574.268,569.842,0.0
55742.0,STARLINK-5594,PAYLOAD,2024-04-12 11:55:06,14.98332975,0.0003144,70.0007,199.9487,269.3072,90.7727,7.6439e-06,-2e-08,0.0,0 STARLINK-5594,1 55742U 23028B   24103.49660694 -.00000002  00000-0  76439-5 0  9999,2 55742  70.0007 199.9487 0003144 269.3072  90.7727 14.98332975 61759,6950.184,96.107,574.234,569.864,0.0
55742.0,STARLINK-5594,PAYLOAD,2024-04-12 13:31:14,14.98334952,0.0003127,70.0009,199.7811,268.1269,91.9532,-1.696e-05,-2.95e-06,0.0,0 STARLINK-5594,1 55742U 23028B   24103.56336603 -.00000295  00000-0 -16960-4 0  9994,2 55742  70.0009 199.7811 0003127 268.1269  91.9532 14.98334952 61761,6950.178,96.107,574.216,569.869,0.0
55742.0,STARLINK-5594,PAYLOAD,2024-04-12 15:07:22,14.98335897,0.0003114,70.0009,199.613,267.7928,92.2875,-4.357e-06,-1.45e-06,0.0,0 STARLINK-5594,1 55742U 23028B   24103.63012500 -.00000145  00000-0 -43570-5 0  9991,2 55742  70.0009 199.6130 0003114 267.7928  92.2875 14.98335897 61771,6950.175,96.107,574.204,569.875,0.0
55742.0,STARLINK-5594,PAYLOAD,2024-04-13 11:57:08,14.98321756,0.0002617,70.0017,197.425,258.6928,101.3937,0.00010924,1.21e-05,0.0,0 STARLINK-5594,1 55742U 23028B   24104.49801421  .00001210  00000-0  10924-3 0  9991,2 55742  70.0017 197.4250 0002617 258.6928 101.3937 14.98321756 61900,6950.218,96.108,573.902,570.265,0.0
55742.0,STARLINK-5594,PAYLOAD,2024-04-13 13:33:16,14.98322212,0.0002876,70.0015,197.2566,266.6959,93.3871,9.8039e-05,1.077e-05,0.0,0 STARLINK-5594,1 55742U 23028B   24104.56477455  .00001077  00000-0  98039-4 0  9990,2 55742  70.0015 197.2566 0002876 266.6959  93.3871 14.98322212 61912,6950.217,96.107,574.081,570.083,0.0
55742.0,STARLINK-5594,PAYLOAD,2024-04-13 15:09:24,14.98322638,0.0002798,70.0016,197.0883,264.2952,95.7888,9.8501e-05,1.082e-05,0.0,0 STARLINK-5594,1 55742U 23028B   24104.63153448  .00001082  00000-0  98501-4 0  9991,2 55742  70.0016 197.0883 0002798 264.2952  95.7888 14.98322638 61920,6950.216,96.107,574.025,570.136,0.0
55742.0,STARLINK-5594,PAYLOAD,2024-04-14 11:59:08,14.98335934,0.0003084,70.001,194.9009,266.315,93.7656,0.00012202,1.363e-05,0.0,0 STARLINK-5594,1 55742U 23028B   24105.49940650  .00001363  00000-0  12202-3 0  9990,2 55742  70.0010 194.9009 0003084 266.3150  93.7656 14.98335934 62051,6950.175,96.107,574.183,569.896,0.0
55742.0,STARLINK-5594,PAYLOAD,2024-04-14 15:11:24,14.9834008,0.0002857,70.0016,194.5644,263.5111,96.5722,0.00018299,2.092e-05,0.0,0 STARLINK-5594,1 55742U 23028B   24105.63292230  .00002092  00000-0  18299-3 0  9992,2 55742  70.0016 194.5644 0002857 263.5111  96.5722 14.98340080 62076,6950.162,96.106,574.012,570.041,0.0
55742.0,STARLINK-5594,PAYLOAD,2024-04-15 12:01:09,14.98329362,0.0002643,70.0021,192.3771,261.483,98.603,0.00014748,1.667e-05,0.0,0 STARLINK-5594,1 55742U 23028B   24106.50080882  .00001667  00000-0  14748-3 0  9999,2 55742  70.0021 192.3771 0002643 261.4830  98.6030 14.98329362 62207,6950.195,96.107,573.897,570.223,0.0
55742.0,STARLINK-5594,PAYLOAD,2024-04-15 13:37:17,14.98331112,0.0002763,70.0017,192.2084,263.6288,96.4556,0.00012557,1.406e-05,0.0,0 STARLINK-5594,1 55742U 23028B   24106.56756818  .00001406  00000-0  12557-3 0  9991,2 55742  70.0017 192.2084 0002763 263.6288  96.4556 14.98331112 62218,6950.189,96.107,573.975,570.134,0.0
55742.0,STARLINK-5594,PAYLOAD,2024-04-16 12:03:09,14.98345591,0.0002909,70.0009,189.8503,268.0166,92.066,0.00017581,2.006e-05,0.0,0 STARLINK-5594,1 55742U 23028B   24107.50219549  .00002006  00000-0  17581-3 0  9990,2 55742  70.0009 189.8503 0002909 268.0166  92.0660 14.98345591 62352,6950.145,96.106,574.031,569.988,0.0
55742.0,STARLINK-5594,PAYLOAD,2024-04-16 13:39:17,14.98344106,0.0002925,70.0011,189.682,272.0175,88.0649,0.00021622,2.489e-05,0.0,0 STARLINK-5594,1 55742U 23028B   24107.56895544  .00002489  00000-0  21622-3 0  9997,2 55742  70.0011 189.6820 0002925 272.0175  88.0649 14.98344106 62362,6950.149,96.106,574.047,569.981,0.0
55742.0,STARLINK-5594,PAYLOAD,2024-04-16 15:15:25,14.98349404,0.0002865,70.001,189.5137,268.0405,92.0426,0.00022792,2.629e-05,0.0,0 STARLINK-5594,1 55742U 23028B   24107.63571139  .00002629  00000-0  22792-3 0  9991,2 55742  70.0010 189.5137 0002865 268.0405  92.0426 14.98349404 62370,6950.133,96.106,573.989,570.007,0.0
55742.0,STARLINK-5594,PAYLOAD,2024-04-17 12:05:11,14.98331967,0.0002555,70.0018,187.3268,256.6726,103.4149,9.6751e-05,1.062e-05,0.0,0 STARLINK-5594,1 55742U 23028B   24108.50360102  .00001062  00000-0  96751-4 0  9991,2 55742  70.0018 187.3268 0002555 256.6726 103.4149 14.98331967 62503,6950.187,96.107,573.828,570.276,0.0
55742.0,STARLINK-5594,PAYLOAD,2024-04-17 13:41:18,14.98336824,0.0002863,70.0011,187.1574,265.383,94.7002,8.9364e-05,9.74e-06,0.0,0 STARLINK-5594,1 55742U 23028B   24108.57035768  .00000974  00000-0  89364-4 0  9998,2 55742  70.0011 187.1574 0002863 265.3830  94.7002 14.98336824 62517,6950.172,96.107,574.027,570.047,0.0
55742.0,STARLINK-5594,PAYLOAD,2024-04-17 15:17:26,14.98338333,0.0002853,70.0012,186.9895,263.8629,96.2205,0.00010451,1.154e-05,0.0,0 STARLINK-5594,1 55742U 23028B   24108.63711608  .00001154  00000-0  10451-3 0  9990,2 55742  70.0012 186.9895 0002853 263.8629  96.2205 14.98338333 62529,6950.167,96.106,574.015,570.049,0.0
55742.0,STARLINK-5594,PAYLOAD,2024-04-18 12:07:13,14.9832533,0.0002975,70.0001,184.8001,274.7695,85.3124,-0.000102,-1.31e-05,0.0,0 STARLINK-5594,1 55742U 23028B   24109.50502125 -.00001310  00000-0 -10200-3 0  9997,2 55742  70.0001 184.8001 0002975 274.7695  85.3124 14.98325330 62658,6950.207,96.107,574.14,570.005,0.0
55742.0,STARLINK-5594,PAYLOAD,2024-04-18 13:43:21,14.98329116,0.0003,70.0001,184.632,273.8788,86.2028,-5.5178e-05,-7.51e-06,0.0,0 STARLINK-5594,1 55742U 23028B   24109.57177809 -.00000751  00000-0 -55178-4 0  9993,2 55742  70.0001 184.6320 0003000 273.8788  86.2028 14.98329116 62663,6950.196,96.107,574.146,569.976,0.0
55742.0,STARLINK-5594,PAYLOAD,2024-04-18 15:19:29,14.98329956,0.0003013,70.0002,184.4643,268.495,91.5864,-4.2845e-05,-6.04e-06,0.0,0 STARLINK-5594,1 55742U 23028B   24109.63853719 -.00000604  00000-0 -42845-4 0  9995,2 55742  70.0002 184.4643 0003013 268.4950  91.5864 14.98329956 62675,6950.193,96.107,574.152,569.964,0.0
55742.0,STARLINK-5594,PAYLOAD,2024-04-19 04:08:33,14.98335439,0.0004108,69.9984,183.1181,278.1591,81.9102,0.00013905,1.567e-05,0.0,0 STARLINK-5594,1 55742U 23028B   24110.17261188  .00001567  00000-0  13905-3 0  9990,2 55742  69.9984 183.1181 0004108 278.1591  81.9102 14.98335439 62759,6950.176,96.107,574.896,569.186,0.0
55742.0,STARLINK-5594,PAYLOAD,2024-04-19 13:45:21,14.9834777,0.0002316,70.0042,182.1106,239.0129,121.0803,0.00065952,7.788e-05,0.0,0 STARLINK-5594,1 55742U 23028B   24110.57316816  .00007788  00000-0  65952-3 0  9993,2 55742  70.0042 182.1106 0002316 239.0129 121.0803 14.98347770 62817,6950.138,96.106,573.613,570.393,0.0
55742.0,STARLINK-5594,PAYLOAD,2024-04-20 04:10:34,14.98336535,0.0002248,70.0048,180.5962,227.5842,132.5127,0.0012117,0.00014397,0.0,0 STARLINK-5594,1 55742U 23028B   24111.17401072  .00014397  00000-0  12117-2 0  9997,2 55742  70.0048 180.5962 0002248 227.5842 132.5127 14.98336535 62906,6950.173,96.107,573.6,570.475,0.0
55742.0,STARLINK-5594,PAYLOAD,2024-04-20 13:47:22,14.98344482,0.0002698,70.0023,179.5821,258.1676,101.918,0.00066286,7.828e-05,0.0,0 STARLINK-5594,1 55742U 23028B   24111.57456321  .00007828  00000-0  66286-3 0  9996,2 55742  70.0023 179.5821 0002698 258.1676 101.9180 14.98344482 62960,6950.148,96.106,573.888,570.138,0.0
55742.0,STARLINK-5594,PAYLOAD,2024-04-21 13:49:24,14.98309009,0.0002203,70.0043,177.0625,234.162,125.9335,-0.00065532,-7.899e-05,0.0,0 STARLINK-5594,1 55742U 23028B   24112.57598139 -.00007899  00000-0 -65532-3 0  9994,2 55742  70.0043 177.0625 0002203 234.1620 125.9335 14.98309009 63114,6950.258,96.108,573.654,570.592,0.0
55742.0,STARLINK-5594,PAYLOAD,2024-04-22 04:14:36,14.98323667,0.0002519,70.0034,175.5463,268.5475,91.5395,-3.5623e-05,-5.18e-06,0.0,0 STARLINK-5594,1 55742U 23028B   24113.17681595 -.00000518  00000-0 -35623-4 0  9990,2 55742  70.0034 175.5463 0002519 268.5475  91.5395 14.98323667 63206,6950.212,96.107,573.828,570.327,0.0
55742.0,STARLINK-5594,PAYLOAD,2024-04-22 10:39:08,14.98332458,0.0002263,70.0032,174.8724,247.9467,112.1452,0.00014744,1.667e-05,0.0,0 STARLINK-5594,1 55742U 23028B   24113.44385208  .00001667  00000-0  14744-3 0  9996,2 55742  70.0032 174.8724 0002263 247.9467 112.1452 14.98332458 63240,6950.185,96.107,573.623,570.477,0.0
55742.0,STARLINK-5594,PAYLOAD,2024-04-22 13:51:24,14.98335392,0.0002333,70.0031,174.5364,255.5699,104.5201,0.00022084,2.543e-05,0.0,0 STARLINK-5594,1 55742U 23028B   24113.57737092  .00002543  00000-0  22084-3 0  9992,2 55742  70.0031 174.5364 0002333 255.5699 104.5201 14.98335392 63265,6950.176,96.107,573.663,570.42,0.0
55742.0,STARLINK-5594,PAYLOAD,2024-04-23 12:17:16,14.98356784,0.0002276,70.0026,172.1793,256.5837,103.5069,0.00095516,0.0001133,0.0,0 STARLINK-5594,1 55742U 23028B   24114.51199839  .00011330  00000-0  95516-3 0  9992,2 55742  70.0026 172.1793 0002276 256.5837 103.5069 14.98356784 63405,6950.11,96.105,573.557,570.393,0.0
